{
"type": "FeatureCollection",
"name": "中国省级行政区划-注记",
"crs": { "type": "name", "properties": { "name": "urn:ogc:def:crs:OGC:1.3:CRS84" } },
"features": [
{ "type": "Feature", "properties": { "name": "北京市", "adchar": null, "province_adcode": 110000, "province_type": "直辖市", "name_en": "Beijing", "name_var": "Běi Jīng" }, "geometry": { "type": "Point", "coordinates": [ 116.412272587996725, 40.185533209894842 ] } },
{ "type": "Feature", "properties": { "name": "天津市", "adchar": null, "province_adcode": 120000, "province_type": "直辖市", "name_en": "Tianjin", "name_var": "Tiān Jīn" }, "geometry": { "type": "Point", "coordinates": [ 117.333239585192942, 39.294749324417843 ] } },
{ "type": "Feature", "properties": { "name": "河北省", "adchar": null, "province_adcode": 130000, "province_type": "省", "name_en": "Hebei", "name_var": "Hé Běi" }, "geometry": { "type": "Point", "coordinates": [ 115.214407959615485, 38.392816762872556 ] } },
{ "type": "Feature", "properties": { "name": "山西省", "adchar": null, "province_adcode": 140000, "province_type": "省", "name_en": "Shanxi", "name_var": "Shān Xī" }, "geometry": { "type": "Point", "coordinates": [ 112.289549909058522, 37.571794893796444 ] } },
{ "type": "Feature", "properties": { "name": "内蒙古自治区", "adchar": null, "province_adcode": 150000, "province_type": "自治区", "name_en": "Neimenggu", "name_var": "Nèi Měng Gǔ" }, "geometry": { "type": "Point", "coordinates": [ 114.279852603016295, 43.561028321883569 ] } },
{ "type": "Feature", "properties": { "name": "辽宁省", "adchar": null, "province_adcode": 210000, "province_type": "省", "name_en": "Liaoning", "name_var": "Liáo Níng" }, "geometry": { "type": "Point", "coordinates": [ 122.606955243935033, 41.284838368905284 ] } },
{ "type": "Feature", "properties": { "name": "吉林省", "adchar": null, "province_adcode": 220000, "province_type": "省", "name_en": "Jilin", "name_var": "Jí Lín" }, "geometry": { "type": "Point", "coordinates": [ 126.190390192728898, 43.665948744435319 ] } },
{ "type": "Feature", "properties": { "name": "黑龙江省", "adchar": null, "province_adcode": 230000, "province_type": "省", "name_en": "Heilongjiang", "name_var": "Hēi Lóng Jiāng" }, "geometry": { "type": "Point", "coordinates": [ 128.031167135833783, 47.338601911651473 ] } },
{ "type": "Feature", "properties": { "name": "上海市", "adchar": null, "province_adcode": 310000, "province_type": "直辖市", "name_en": "Shanghai", "name_var": "Shàng Hǎi" }, "geometry": { "type": "Point", "coordinates": [ 121.478061072469032, 31.239788587542094 ] } },
{ "type": "Feature", "properties": { "name": "浙江省", "adchar": null, "province_adcode": 330000, "province_type": "省", "name_en": "Zhejiang", "name_var": "Zhè Jiāng" }, "geometry": { "type": "Point", "coordinates": [ 120.112904057118911, 29.195297834212955 ] } },
{ "type": "Feature", "properties": { "name": "安徽省", "adchar": null, "province_adcode": 340000, "province_type": "省", "name_en": "Anhui", "name_var": "ān Huī" }, "geometry": { "type": "Point", "coordinates": [ 117.22642040625044, 31.826017635197562 ] } },
{ "type": "Feature", "properties": { "name": "福建省", "adchar": null, "province_adcode": 350000, "province_type": "省", "name_en": "Fujian", "name_var": "Fú Jiàn" }, "geometry": { "type": "Point", "coordinates": [ 117.990518242233478, 26.073603170093428 ] } },
{ "type": "Feature", "properties": { "name": "江西省", "adchar": null, "province_adcode": 360000, "province_type": "省", "name_en": "Jiangxi", "name_var": "Jiāng Xī" }, "geometry": { "type": "Point", "coordinates": [ 115.722197798360938, 27.614090543651095 ] } },
{ "type": "Feature", "properties": { "name": "山东省", "adchar": null, "province_adcode": 370000, "province_type": "省", "name_en": "Shandong", "name_var": "Shān Dōng" }, "geometry": { "type": "Point", "coordinates": [ 118.154138956343559, 36.350551148644563 ] } },
{ "type": "Feature", "properties": { "name": "河南省", "adchar": null, "province_adcode": 410000, "province_type": "省", "name_en": "Henan", "name_var": "Hé Nán" }, "geometry": { "type": "Point", "coordinates": [ 113.614544240166978, 33.882396210406917 ] } },
{ "type": "Feature", "properties": { "name": "湖北省", "adchar": null, "province_adcode": 420000, "province_type": "省", "name_en": "Hubei", "name_var": "Hú Běi" }, "geometry": { "type": "Point", "coordinates": [ 112.271449813773287, 30.975555957060472 ] } },
{ "type": "Feature", "properties": { "name": "湖南省", "adchar": null, "province_adcode": 430000, "province_type": "省", "name_en": "Hunan", "name_var": "Hú Nán" }, "geometry": { "type": "Point", "coordinates": [ 111.708833410207831, 27.609869101898326 ] } },
{ "type": "Feature", "properties": { "name": "广东省", "adchar": null, "province_adcode": 440000, "province_type": "省", "name_en": "Guangdong", "name_var": "Guǎng Dōng" }, "geometry": { "type": "Point", "coordinates": [ 113.421392028598106, 23.339122942229807 ] } },
{ "type": "Feature", "properties": { "name": "广西壮族自治区", "adchar": null, "province_adcode": 450000, "province_type": "自治区", "name_en": "Guangxi", "name_var": "Guǎng Xī" }, "geometry": { "type": "Point", "coordinates": [ 108.788351377170684, 23.829163582319229 ] } },
{ "type": "Feature", "properties": { "name": "海南省", "adchar": null, "province_adcode": 460000, "province_type": "省", "name_en": "Hainan", "name_var": "Hǎi Nán" }, "geometry": { "type": "Point", "coordinates": [ 109.449293746827991, 19.069451174793986 ] } },
{ "type": "Feature", "properties": { "name": "重庆市", "adchar": null, "province_adcode": 500000, "province_type": "直辖市", "name_en": "Chongqing", "name_var": "Chóng Qìng" }, "geometry": { "type": "Point", "coordinates": [ 107.87447231006584, 30.057303609820497 ] } },
{ "type": "Feature", "properties": { "name": "四川省", "adchar": null, "province_adcode": 510000, "province_type": "省", "name_en": "Sichuan", "name_var": "Sì Chuān" }, "geometry": { "type": "Point", "coordinates": [ 102.692869576650125, 30.629232776738547 ] } },
{ "type": "Feature", "properties": { "name": "贵州省", "adchar": null, "province_adcode": 520000, "province_type": "省", "name_en": "Guizhou", "name_var": "Guì Zhōu" }, "geometry": { "type": "Point", "coordinates": [ 106.874904782843018, 26.815461398060588 ] } },
{ "type": "Feature", "properties": { "name": "云南省", "adchar": null, "province_adcode": 530000, "province_type": "省", "name_en": "Yunnan", "name_var": "Yún Nán" }, "geometry": { "type": "Point", "coordinates": [ 101.486077349076538, 24.975565281508171 ] } },
{ "type": "Feature", "properties": { "name": "西藏自治区", "adchar": null, "province_adcode": 540000, "province_type": "自治区", "name_en": "Xizang", "name_var": "Xī Zàng" }, "geometry": { "type": "Point", "coordinates": [ 88.443153996233036, 31.490715998921885 ] } },
{ "type": "Feature", "properties": { "name": "陕西省", "adchar": null, "province_adcode": 610000, "province_type": "省", "name_en": "Shaanxi", "name_var": "Shǎn Xī" }, "geometry": { "type": "Point", "coordinates": [ 109.182277930656809, 35.001495405492093 ] } },
{ "type": "Feature", "properties": { "name": "甘肃省", "adchar": null, "province_adcode": 620000, "province_type": "省", "name_en": "Gansu", "name_var": "Gān Sù" }, "geometry": { "type": "Point", "coordinates": [ 102.045673389353439, 38.13074471625562 ] } },
{ "type": "Feature", "properties": { "name": "青海省", "adchar": null, "province_adcode": 630000, "province_type": "省", "name_en": "Qinghai", "name_var": "Qīng Hǎi" }, "geometry": { "type": "Point", "coordinates": [ 96.039358591525016, 35.670652205123559 ] } },
{ "type": "Feature", "properties": { "name": "宁夏回族自治区", "adchar": null, "province_adcode": 640000, "province_type": "自治区", "name_en": "Ningxia", "name_var": "Níng Xià Huí Zú" }, "geometry": { "type": "Point", "coordinates": [ 106.163788876434921, 37.271546550467939 ] } },
{ "type": "Feature", "properties": { "name": "新疆维吾尔自治区", "adchar": null, "province_adcode": 650000, "province_type": "自治区", "name_en": "Xinjiang", "name_var": "Xīn Jiāng" }, "geometry": { "type": "Point", "coordinates": [ 85.191421883889944, 41.11742276245625 ] } },
{ "type": "Feature", "properties": { "name": "台湾省", "adchar": null, "province_adcode": 710000, "province_type": "省", "name_en": "Taiwan", "name_var": "Tái Wān" }, "geometry": { "type": "Point", "coordinates": [ 121.001657166744266, 23.768054213825717 ] } },
{ "type": "Feature", "properties": { "name": "香港特别行政区", "adchar": null, "province_adcode": 810000, "province_type": "特别行政区", "name_en": "HongKong", "name_var": "Hong Kong" }, "geometry": { "type": "Point", "coordinates": [ 114.134075912110021, 22.381425081385629 ] } },
{ "type": "Feature", "properties": { "name": "澳门特别行政区", "adchar": null, "province_adcode": 820000, "province_type": "特别行政区", "name_en": "Aomen", "name_var": "ào Mén" }, "geometry": { "type": "Point", "coordinates": [ 113.565661151524282, 22.147994417598589 ] } },
{ "type": "Feature", "properties": { "name": "江苏省", "adchar": null, "province_adcode": 320000, "province_type": "省", "name_en": "Jiangsu", "name_var": "Jiāng Sū" }, "geometry": { "type": "Point", "coordinates": [ 119.474570641956504, 32.964245475098807 ] } },
{ "type": "Feature", "properties": { "name": "南海界限", "adchar": "JD", "province_adcode": null, "province_type": null, "name_en": null, "name_var": null }, "geometry": { "type": "Point", "coordinates": [ 115.869016894691811, 13.698363970491968 ] } }
]
}
