{
"type": "FeatureCollection",
"name": "中国市级行政区划注记",
"crs": { "type": "name", "properties": { "name": "urn:ogc:def:crs:OGC:1.3:CRS84" } },
"features": [
{ "type": "Feature", "properties": { "name": "梅州市", "gb": "156441400" }, "geometry": { "type": "Point", "coordinates": [ 116.078350095157006, 24.202066378554655 ] } },
{ "type": "Feature", "properties": { "name": "鄂州市", "gb": "156420700" }, "geometry": { "type": "Point", "coordinates": [ 114.754520615664347, 30.327871999166248 ] } },
{ "type": "Feature", "properties": { "name": "吕梁市", "gb": "156141100" }, "geometry": { "type": "Point", "coordinates": [ 111.264943004459226, 37.678952071744078 ] } },
{ "type": "Feature", "properties": { "name": "舟山市", "gb": "156330900" }, "geometry": { "type": "Point", "coordinates": [ 122.176318141926856, 30.088253028417778 ] } },
{ "type": "Feature", "properties": { "name": "朝阳市", "gb": "156211300" }, "geometry": { "type": "Point", "coordinates": [ 120.013959299225462, 41.511047104307231 ] } },
{ "type": "Feature", "properties": { "name": "广安市", "gb": "156511600" }, "geometry": { "type": "Point", "coordinates": [ 106.66268783288038, 30.425661616081289 ] } },
{ "type": "Feature", "properties": { "name": "濮阳市", "gb": "156410900" }, "geometry": { "type": "Point", "coordinates": [ 115.281139887537861, 35.808125454703443 ] } },
{ "type": "Feature", "properties": { "name": "宣城市", "gb": "156341800" }, "geometry": { "type": "Point", "coordinates": [ 118.85427481958753, 30.687444356507886 ] } },
{ "type": "Feature", "properties": { "name": "六盘水市", "gb": "156520200" }, "geometry": { "type": "Point", "coordinates": [ 104.891175595231758, 26.135754002440795 ] } },
{ "type": "Feature", "properties": { "name": "深圳市", "gb": "156440300" }, "geometry": { "type": "Point", "coordinates": [ 114.128169167294345, 22.654396729860817 ] } },
{ "type": "Feature", "properties": { "name": "三明市", "gb": "156350400" }, "geometry": { "type": "Point", "coordinates": [ 117.396094466642026, 26.299091301215949 ] } },
{ "type": "Feature", "properties": { "name": "景德镇市", "gb": "156360200" }, "geometry": { "type": "Point", "coordinates": [ 117.269948668308558, 29.306648372742842 ] } },
{ "type": "Feature", "properties": { "name": "楚雄彝族自治州", "gb": "156532300" }, "geometry": { "type": "Point", "coordinates": [ 101.568134009298248, 25.352261328125174 ] } },
{ "type": "Feature", "properties": { "name": "大连市", "gb": "156210200" }, "geometry": { "type": "Point", "coordinates": [ 122.202076945993696, 39.594776984032976 ] } },
{ "type": "Feature", "properties": { "name": "攀枝花市", "gb": "156510400" }, "geometry": { "type": "Point", "coordinates": [ 101.731045414958501, 26.806617346136505 ] } },
{ "type": "Feature", "properties": { "name": "贺州市", "gb": "156451100" }, "geometry": { "type": "Point", "coordinates": [ 111.360428915170417, 24.358015860151141 ] } },
{ "type": "Feature", "properties": { "name": "西安市", "gb": "156610100" }, "geometry": { "type": "Point", "coordinates": [ 108.79172192808295, 34.106631760441594 ] } },
{ "type": "Feature", "properties": { "name": "淮北市", "gb": "156340600" }, "geometry": { "type": "Point", "coordinates": [ 116.742086366530785, 33.726526090068241 ] } },
{ "type": "Feature", "properties": { "name": "邵阳市", "gb": "156430500" }, "geometry": { "type": "Point", "coordinates": [ 110.874032008364182, 26.91280675091723 ] } },
{ "type": "Feature", "properties": { "name": "石家庄市", "gb": "156130100" }, "geometry": { "type": "Point", "coordinates": [ 114.440329866869206, 38.130664455061016 ] } },
{ "type": "Feature", "properties": { "name": "汕尾市", "gb": "156441500" }, "geometry": { "type": "Point", "coordinates": [ 115.600739400481487, 22.849569358527976 ] } },
{ "type": "Feature", "properties": { "name": "荆门市", "gb": "156420800" }, "geometry": { "type": "Point", "coordinates": [ 112.608165459131286, 31.069014115902124 ] } },
{ "type": "Feature", "properties": { "name": "衢州市", "gb": "156330800" }, "geometry": { "type": "Point", "coordinates": [ 118.674710905076338, 28.935050394530183 ] } },
{ "type": "Feature", "properties": { "name": "迪庆藏族自治州", "gb": "156533400" }, "geometry": { "type": "Point", "coordinates": [ 99.44079857202199, 27.957408320691226 ] } },
{ "type": "Feature", "properties": { "name": "宜宾市", "gb": "156511500" }, "geometry": { "type": "Point", "coordinates": [ 104.635342331206388, 28.572733696962267 ] } },
{ "type": "Feature", "properties": { "name": "葫芦岛市", "gb": "156211400" }, "geometry": { "type": "Point", "coordinates": [ 120.197423372696605, 40.623782072498379 ] } },
{ "type": "Feature", "properties": { "name": "济南市", "gb": "156370100" }, "geometry": { "type": "Point", "coordinates": [ 117.214197672400985, 36.637063515096159 ] } },
{ "type": "Feature", "properties": { "name": "贵阳市", "gb": "156520100" }, "geometry": { "type": "Point", "coordinates": [ 106.706339727151374, 26.8412097571955 ] } },
{ "type": "Feature", "properties": { "name": "珠海市", "gb": "156440400" }, "geometry": { "type": "Point", "coordinates": [ 113.355921769002066, 22.167730507510605 ] } },
{ "type": "Feature", "properties": { "name": "长春市", "gb": "156220100" }, "geometry": { "type": "Point", "coordinates": [ 125.581639552242905, 44.281855335666648 ] } },
{ "type": "Feature", "properties": { "name": "延边朝鲜族自治州", "gb": "156222400" }, "geometry": { "type": "Point", "coordinates": [ 129.125987061963684, 43.141292954623211 ] } },
{ "type": "Feature", "properties": { "name": "萍乡市", "gb": "156360300" }, "geometry": { "type": "Point", "coordinates": [ 113.902691168460393, 27.512719538792069 ] } },
{ "type": "Feature", "properties": { "name": "庆阳市", "gb": "156621000" }, "geometry": { "type": "Point", "coordinates": [ 107.587980482162436, 36.164536907618043 ] } },
{ "type": "Feature", "properties": { "name": "泉州市", "gb": "156350500" }, "geometry": { "type": "Point", "coordinates": [ 118.256918050892025, 25.200297231470554 ] } },
{ "type": "Feature", "properties": { "name": "自贡市", "gb": "156510300" }, "geometry": { "type": "Point", "coordinates": [ 104.682833270168246, 29.28665806620613 ] } },
{ "type": "Feature", "properties": { "name": "临沂市", "gb": "156371300" }, "geometry": { "type": "Point", "coordinates": [ 118.279485538850466, 35.310827116734174 ] } },
{ "type": "Feature", "properties": { "name": "百色市", "gb": "156451000" }, "geometry": { "type": "Point", "coordinates": [ 106.287618658053418, 23.985622095816414 ] } },
{ "type": "Feature", "properties": { "name": "鞍山市", "gb": "156210300" }, "geometry": { "type": "Point", "coordinates": [ 123.012015048116965, 40.714129552548663 ] } },
{ "type": "Feature", "properties": { "name": "铜陵市", "gb": "156340700" }, "geometry": { "type": "Point", "coordinates": [ 117.556176431515098, 30.884090828234743 ] } },
{ "type": "Feature", "properties": { "name": "唐山市", "gb": "156130200" }, "geometry": { "type": "Point", "coordinates": [ 118.336163403219132, 39.722006774481528 ] } },
{ "type": "Feature", "properties": { "name": "岳阳市", "gb": "156430600" }, "geometry": { "type": "Point", "coordinates": [ 113.254725217905388, 29.06499482501701 ] } },
{ "type": "Feature", "properties": { "name": "河源市", "gb": "156441600" }, "geometry": { "type": "Point", "coordinates": [ 114.957844242997581, 24.043037672637592 ] } },
{ "type": "Feature", "properties": { "name": "孝感市", "gb": "156420900" }, "geometry": { "type": "Point", "coordinates": [ 113.878662263805381, 31.117892723928961 ] } },
{ "type": "Feature", "properties": { "name": "金华市", "gb": "156330700" }, "geometry": { "type": "Point", "coordinates": [ 119.952322712309439, 29.118248949426881 ] } },
{ "type": "Feature", "properties": { "name": "兴安盟", "gb": "156152200" }, "geometry": { "type": "Point", "coordinates": [ 121.337256231814294, 46.225594509495586 ] } },
{ "type": "Feature", "properties": { "name": "盘锦市", "gb": "156211100" }, "geometry": { "type": "Point", "coordinates": [ 121.998795537501763, 41.075011172158526 ] } },
{ "type": "Feature", "properties": { "name": "雅安市", "gb": "156511800" }, "geometry": { "type": "Point", "coordinates": [ 102.663854149498263, 29.912205988251362 ] } },
{ "type": "Feature", "properties": { "name": "亳州市", "gb": "156341600" }, "geometry": { "type": "Point", "coordinates": [ 116.180329717359911, 33.436166935835985 ] } },
{ "type": "Feature", "properties": { "name": "商洛市", "gb": "156611000" }, "geometry": { "type": "Point", "coordinates": [ 109.900745456299475, 33.647660972768371 ] } },
{ "type": "Feature", "properties": { "name": "盐城市", "gb": "156320900" }, "geometry": { "type": "Point", "coordinates": [ 120.184263568674183, 33.507938894130405 ] } },
{ "type": "Feature", "properties": { "name": "汕头市", "gb": "156440500" }, "geometry": { "type": "Point", "coordinates": [ 116.583295904908979, 23.333803017779559 ] } },
{ "type": "Feature", "properties": { "name": "安顺市", "gb": "156520400" }, "geometry": { "type": "Point", "coordinates": [ 105.948832141179224, 25.995444174394382 ] } },
{ "type": "Feature", "properties": { "name": "黔南布依族苗族自治州", "gb": "156522700" }, "geometry": { "type": "Point", "coordinates": [ 107.249569541715246, 26.01476758683166 ] } },
{ "type": "Feature", "properties": { "name": "厦门市", "gb": "156350200" }, "geometry": { "type": "Point", "coordinates": [ 118.117225088738167, 24.675179659434988 ] } },
{ "type": "Feature", "properties": { "name": "太子山天然林保护区", "gb": "156629900" }, "geometry": { "type": "Point", "coordinates": [ 103.290546021106991, 35.237796046136701 ] } },
{ "type": "Feature", "properties": { "name": "阿克苏地区", "gb": "156652900" }, "geometry": { "type": "Point", "coordinates": [ 81.549107154835554, 40.962546634829955 ] } },
{ "type": "Feature", "properties": { "name": "红河哈尼族彝族自治州", "gb": "156532500" }, "geometry": { "type": "Point", "coordinates": [ 103.034548266115465, 23.441454664765253 ] } },
{ "type": "Feature", "properties": { "name": "甘南藏族自治州", "gb": "156623000" }, "geometry": { "type": "Point", "coordinates": [ 102.765702625343479, 34.320395244920036 ] } },
{ "type": "Feature", "properties": { "name": "太原市", "gb": "156140100" }, "geometry": { "type": "Point", "coordinates": [ 112.316018493345211, 37.959023372475073 ] } },
{ "type": "Feature", "properties": { "name": "常德市", "gb": "156430700" }, "geometry": { "type": "Point", "coordinates": [ 111.519542081947804, 29.300708917637596 ] } },
{ "type": "Feature", "properties": { "name": "牡丹江市", "gb": "156231000" }, "geometry": { "type": "Point", "coordinates": [ 129.886776491094849, 44.59607523573375 ] } },
{ "type": "Feature", "properties": { "name": "淮南市", "gb": "156340400" }, "geometry": { "type": "Point", "coordinates": [ 116.768535329887612, 32.472121474994744 ] } },
{ "type": "Feature", "properties": { "name": "德阳市", "gb": "156510600" }, "geometry": { "type": "Point", "coordinates": [ 104.435342674153517, 31.130026673405382 ] } },
{ "type": "Feature", "properties": { "name": "威海市", "gb": "156371000" }, "geometry": { "type": "Point", "coordinates": [ 121.982912992305558, 37.119314095395033 ] } },
{ "type": "Feature", "properties": { "name": "秦皇岛市", "gb": "156130300" }, "geometry": { "type": "Point", "coordinates": [ 119.184308064516969, 40.087615136271772 ] } },
{ "type": "Feature", "properties": { "name": "绍兴市", "gb": "156330600" }, "geometry": { "type": "Point", "coordinates": [ 120.636415728819884, 29.735454202647357 ] } },
{ "type": "Feature", "properties": { "name": "阳江市", "gb": "156441700" }, "geometry": { "type": "Point", "coordinates": [ 111.771980654677577, 22.036081196202844 ] } },
{ "type": "Feature", "properties": { "name": "铁岭市", "gb": "156211200" }, "geometry": { "type": "Point", "coordinates": [ 124.170498953307472, 42.642492205903324 ] } },
{ "type": "Feature", "properties": { "name": "达州市", "gb": "156511700" }, "geometry": { "type": "Point", "coordinates": [ 107.644688679293992, 31.366330826276918 ] } },
{ "type": "Feature", "properties": { "name": "池州市", "gb": "156341700" }, "geometry": { "type": "Point", "coordinates": [ 117.365927388287517, 30.283642043210033 ] } },
{ "type": "Feature", "properties": { "name": "淮安市", "gb": "156320800" }, "geometry": { "type": "Point", "coordinates": [ 118.963798663698057, 33.352870582798126 ] } },
{ "type": "Feature", "properties": { "name": "遵义市", "gb": "156520300" }, "geometry": { "type": "Point", "coordinates": [ 107.084981079184487, 28.168125831655029 ] } },
{ "type": "Feature", "properties": { "name": "黔东南苗族侗族自治州", "gb": "156522600" }, "geometry": { "type": "Point", "coordinates": [ 108.556930664098999, 26.504298159800786 ] } },
{ "type": "Feature", "properties": { "name": "莆田市", "gb": "156350300" }, "geometry": { "type": "Point", "coordinates": [ 118.891150152167739, 25.450244716035243 ] } },
{ "type": "Feature", "properties": { "name": "南昌市", "gb": "156360100" }, "geometry": { "type": "Point", "coordinates": [ 116.019132059255071, 28.64910008658007 ] } },
{ "type": "Feature", "properties": { "name": "佛山市", "gb": "156440600" }, "geometry": { "type": "Point", "coordinates": [ 112.944615077464135, 23.006497488040193 ] } },
{ "type": "Feature", "properties": { "name": "大同市", "gb": "156140200" }, "geometry": { "type": "Point", "coordinates": [ 113.720516041448818, 39.899917000137599 ] } },
{ "type": "Feature", "properties": { "name": "昆明市", "gb": "156530100" }, "geometry": { "type": "Point", "coordinates": [ 102.872410373579029, 25.387902237668815 ] } },
{ "type": "Feature", "properties": { "name": "张家界市", "gb": "156430800" }, "geometry": { "type": "Point", "coordinates": [ 110.526839618757393, 29.39253496580794 ] } },
{ "type": "Feature", "properties": { "name": "泸州市", "gb": "156510500" }, "geometry": { "type": "Point", "coordinates": [ 105.666754583212196, 28.440413304374719 ] } },
{ "type": "Feature", "properties": { "name": "沈阳市", "gb": "156210100" }, "geometry": { "type": "Point", "coordinates": [ 123.138366447051894, 42.094999778388704 ] } },
{ "type": "Feature", "properties": { "name": "邯郸市", "gb": "156130400" }, "geometry": { "type": "Point", "coordinates": [ 114.544510966415174, 36.551447531758576 ] } },
{ "type": "Feature", "properties": { "name": "马鞍山市", "gb": "156340500" }, "geometry": { "type": "Point", "coordinates": [ 118.368543497485092, 31.636857960508067 ] } },
{ "type": "Feature", "properties": { "name": "日照市", "gb": "156371100" }, "geometry": { "type": "Point", "coordinates": [ 119.134589904637409, 35.583364631136973 ] } },
{ "type": "Feature", "properties": { "name": "三亚市", "gb": "156460200" }, "geometry": { "type": "Point", "coordinates": [ 109.417795112005493, 18.393993377346874 ] } },
{ "type": "Feature", "properties": { "name": "台湾省", "gb": "156710000" }, "geometry": { "type": "Point", "coordinates": [ 120.977129909836677, 23.754505337218468 ] } },
{ "type": "Feature", "properties": { "name": "十堰市", "gb": "156420300" }, "geometry": { "type": "Point", "coordinates": [ 110.44212248804763, 32.457345101998328 ] } },
{ "type": "Feature", "properties": { "name": "呼和浩特市", "gb": "156150100" }, "geometry": { "type": "Point", "coordinates": [ 111.496772600793363, 40.59203487096152 ] } },
{ "type": "Feature", "properties": { "name": "德宏傣族景颇族自治州", "gb": "156533100" }, "geometry": { "type": "Point", "coordinates": [ 98.085865001475426, 24.558190882702636 ] } },
{ "type": "Feature", "properties": { "name": "梧州市", "gb": "156450400" }, "geometry": { "type": "Point", "coordinates": [ 110.989959514549611, 23.480778804399325 ] } },
{ "type": "Feature", "properties": { "name": "枣庄市", "gb": "156370400" }, "geometry": { "type": "Point", "coordinates": [ 117.393141680413137, 34.916510147895366 ] } },
{ "type": "Feature", "properties": { "name": "安阳市", "gb": "156410500" }, "geometry": { "type": "Point", "coordinates": [ 114.350494832471313, 35.876413206759942 ] } },
{ "type": "Feature", "properties": { "name": "怀化市", "gb": "156431200" }, "geometry": { "type": "Point", "coordinates": [ 110.0741848371066, 27.547531729687876 ] } },
{ "type": "Feature", "properties": { "name": "阳泉市", "gb": "156140300" }, "geometry": { "type": "Point", "coordinates": [ 113.499390570011542, 38.063882266365582 ] } },
{ "type": "Feature", "properties": { "name": "保亭黎族苗族自治县", "gb": "156469029" }, "geometry": { "type": "Point", "coordinates": [ 109.646404723080906, 18.591371038087704 ] } },
{ "type": "Feature", "properties": { "name": "中农发山丹马场", "gb": "156629700" }, "geometry": { "type": "Point", "coordinates": [ 101.205272810408147, 38.094119739519243 ] } },
{ "type": "Feature", "properties": { "name": "鹰潭市", "gb": "156360600" }, "geometry": { "type": "Point", "coordinates": [ 117.108187062751711, 28.224181752741909 ] } },
{ "type": "Feature", "properties": { "name": "陵水黎族自治县", "gb": "156469028" }, "geometry": { "type": "Point", "coordinates": [ 109.936755892111904, 18.573792790994322 ] } },
{ "type": "Feature", "properties": { "name": "博尔塔拉蒙古自治州", "gb": "156652700" }, "geometry": { "type": "Point", "coordinates": [ 82.106934317896943, 44.730661514682829 ] } },
{ "type": "Feature", "properties": { "name": "乐东黎族自治县", "gb": "156469027" }, "geometry": { "type": "Point", "coordinates": [ 109.051839478775506, 18.653779275504331 ] } },
{ "type": "Feature", "properties": { "name": "辽源市", "gb": "156220400" }, "geometry": { "type": "Point", "coordinates": [ 125.304383502976705, 42.810644315526361 ] } },
{ "type": "Feature", "properties": { "name": "齐齐哈尔市", "gb": "156230200" }, "geometry": { "type": "Point", "coordinates": [ 124.544248479093966, 47.699120552594202 ] } },
{ "type": "Feature", "properties": { "name": "龙岩市", "gb": "156350800" }, "geometry": { "type": "Point", "coordinates": [ 116.737577050961193, 25.292207225020359 ] } },
{ "type": "Feature", "properties": { "name": "天门市", "gb": "156429006" }, "geometry": { "type": "Point", "coordinates": [ 113.112359374924736, 30.644918329857447 ] } },
{ "type": "Feature", "properties": { "name": "潜江市", "gb": "156429005" }, "geometry": { "type": "Point", "coordinates": [ 112.756066619151852, 30.339512350341522 ] } },
{ "type": "Feature", "properties": { "name": "邢台市", "gb": "156130500" }, "geometry": { "type": "Point", "coordinates": [ 114.817170981511097, 37.212677681753092 ] } },
{ "type": "Feature", "properties": { "name": "仙桃市", "gb": "156429004" }, "geometry": { "type": "Point", "coordinates": [ 113.374966923452007, 30.290086888206265 ] } },
{ "type": "Feature", "properties": { "name": "绥化市", "gb": "156231200" }, "geometry": { "type": "Point", "coordinates": [ 126.645474058137694, 46.893590185521802 ] } },
{ "type": "Feature", "properties": { "name": "丹东市", "gb": "156210600" }, "geometry": { "type": "Point", "coordinates": [ 124.407138697494901, 40.540292655146118 ] } },
{ "type": "Feature", "properties": { "name": "滨州市", "gb": "156371600" }, "geometry": { "type": "Point", "coordinates": [ 117.837931791522337, 37.531975487261874 ] } },
{ "type": "Feature", "properties": { "name": "镇江市", "gb": "156321100" }, "geometry": { "type": "Point", "coordinates": [ 119.454575563220715, 32.016916931971068 ] } },
{ "type": "Feature", "properties": { "name": "昌江黎族自治县", "gb": "156469026" }, "geometry": { "type": "Point", "coordinates": [ 109.000637547408971, 19.217635372986134 ] } },
{ "type": "Feature", "properties": { "name": "周口市", "gb": "156411600" }, "geometry": { "type": "Point", "coordinates": [ 114.877712950015308, 33.722130632107763 ] } },
{ "type": "Feature", "properties": { "name": "白沙黎族自治县", "gb": "156469025" }, "geometry": { "type": "Point", "coordinates": [ 109.347799842813089, 19.211513028232822 ] } },
{ "type": "Feature", "properties": { "name": "临高县", "gb": "156469024" }, "geometry": { "type": "Point", "coordinates": [ 109.712462613118035, 19.801759419328274 ] } },
{ "type": "Feature", "properties": { "name": "吐鲁番市", "gb": "156650400" }, "geometry": { "type": "Point", "coordinates": [ 89.815983110041515, 42.391412607743838 ] } },
{ "type": "Feature", "properties": { "name": "澄迈县", "gb": "156469023" }, "geometry": { "type": "Point", "coordinates": [ 109.985635127374863, 19.688963045032239 ] } },
{ "type": "Feature", "properties": { "name": "长沙市", "gb": "156430100" }, "geometry": { "type": "Point", "coordinates": [ 113.150871444651557, 28.226779622153639 ] } },
{ "type": "Feature", "properties": { "name": "屯昌县", "gb": "156469022" }, "geometry": { "type": "Point", "coordinates": [ 110.051558926901464, 19.343086350605113 ] } },
{ "type": "Feature", "properties": { "name": "定安县", "gb": "156469021" }, "geometry": { "type": "Point", "coordinates": [ 110.308016861588797, 19.485071759103551 ] } },
{ "type": "Feature", "properties": { "name": "海口市", "gb": "156460100" }, "geometry": { "type": "Point", "coordinates": [ 110.420803726525023, 19.832360883558309 ] } },
{ "type": "Feature", "properties": { "name": "乐山市", "gb": "156511100" }, "geometry": { "type": "Point", "coordinates": [ 103.570384483014436, 29.216218032486488 ] } },
{ "type": "Feature", "properties": { "name": "凉山彝族自治州", "gb": "156513400" }, "geometry": { "type": "Point", "coordinates": [ 102.078726090721247, 27.887990187271971 ] } },
{ "type": "Feature", "properties": { "name": "桂林市", "gb": "156450300" }, "geometry": { "type": "Point", "coordinates": [ 110.513018964034799, 25.353743196383348 ] } },
{ "type": "Feature", "properties": { "name": "东营市", "gb": "156370500" }, "geometry": { "type": "Point", "coordinates": [ 118.600525041891331, 37.628768374011102 ] } },
{ "type": "Feature", "properties": { "name": "鹤壁市", "gb": "156410600" }, "geometry": { "type": "Point", "coordinates": [ 114.311391629477768, 35.721314561567524 ] } },
{ "type": "Feature", "properties": { "name": "娄底市", "gb": "156431300" }, "geometry": { "type": "Point", "coordinates": [ 111.614208958737564, 27.739135011944011 ] } },
{ "type": "Feature", "properties": { "name": "包头市", "gb": "156150200" }, "geometry": { "type": "Point", "coordinates": [ 110.259746696185204, 41.550267233010111 ] } },
{ "type": "Feature", "properties": { "name": "锡林郭勒盟", "gb": "156152500" }, "geometry": { "type": "Point", "coordinates": [ 115.48340827456002, 44.193065570744423 ] } },
{ "type": "Feature", "properties": { "name": "琼中黎族苗族自治县", "gb": "156469030" }, "geometry": { "type": "Point", "coordinates": [ 109.850855235789496, 19.035160547166996 ] } },
{ "type": "Feature", "properties": { "name": "长治市", "gb": "156140400" }, "geometry": { "type": "Point", "coordinates": [ 112.915616523699597, 36.475606480762444 ] } },
{ "type": "Feature", "properties": { "name": "赣州市", "gb": "156360700" }, "geometry": { "type": "Point", "coordinates": [ 115.271265712263258, 25.707438738177299 ] } },
{ "type": "Feature", "properties": { "name": "莲花山风景林自然保护区", "gb": "156629800" }, "geometry": { "type": "Point", "coordinates": [ 103.762511274845977, 34.957707816976566 ] } },
{ "type": "Feature", "properties": { "name": "通化市", "gb": "156220500" }, "geometry": { "type": "Point", "coordinates": [ 125.949479685265928, 41.953031213352439 ] } },
{ "type": "Feature", "properties": { "name": "巴音郭楞蒙古自治州", "gb": "156652800" }, "geometry": { "type": "Point", "coordinates": [ 87.465445622967962, 39.490651892777606 ] } },
{ "type": "Feature", "properties": { "name": "上海市", "gb": "156310000" }, "geometry": { "type": "Point", "coordinates": [ 121.469481470766326, 31.204946780643567 ] } },
{ "type": "Feature", "properties": { "name": "鸡西市", "gb": "156230300" }, "geometry": { "type": "Point", "coordinates": [ 132.283246521459262, 45.629055831405068 ] } },
{ "type": "Feature", "properties": { "name": "宁德市", "gb": "156350900" }, "geometry": { "type": "Point", "coordinates": [ 119.471849665795801, 26.975927995647872 ] } },
{ "type": "Feature", "properties": { "name": "保定市", "gb": "156130600" }, "geometry": { "type": "Point", "coordinates": [ 115.170594988136401, 39.021455242387141 ] } },
{ "type": "Feature", "properties": { "name": "菏泽市", "gb": "156371700" }, "geometry": { "type": "Point", "coordinates": [ 115.690611123783597, 35.152425669890988 ] } },
{ "type": "Feature", "properties": { "name": "崇左市", "gb": "156451400" }, "geometry": { "type": "Point", "coordinates": [ 107.273523782050603, 22.502981792783363 ] } },
{ "type": "Feature", "properties": { "name": "黑河市", "gb": "156231100" }, "geometry": { "type": "Point", "coordinates": [ 126.985591574412354, 49.262636123858393 ] } },
{ "type": "Feature", "properties": { "name": "扬州市", "gb": "156321000" }, "geometry": { "type": "Point", "coordinates": [ 119.473871562734615, 32.737984229568582 ] } },
{ "type": "Feature", "properties": { "name": "驻马店市", "gb": "156411700" }, "geometry": { "type": "Point", "coordinates": [ 114.149515326628006, 32.923648830325767 ] } },
{ "type": "Feature", "properties": { "name": "哈密市", "gb": "156650500" }, "geometry": { "type": "Point", "coordinates": [ 93.497596201493565, 43.046035589388183 ] } },
{ "type": "Feature", "properties": { "name": "株洲市", "gb": "156430200" }, "geometry": { "type": "Point", "coordinates": [ 113.516285660821254, 27.120892727443714 ] } },
{ "type": "Feature", "properties": { "name": "锦州市", "gb": "156210700" }, "geometry": { "type": "Point", "coordinates": [ 121.613611355640288, 41.460844058210228 ] } },
{ "type": "Feature", "properties": { "name": "肇庆市", "gb": "156441200" }, "geometry": { "type": "Point", "coordinates": [ 112.204856761253865, 23.537957349202376 ] } },
{ "type": "Feature", "properties": { "name": "恩施土家族苗族自治州", "gb": "156422800" }, "geometry": { "type": "Point", "coordinates": [ 109.548083111259714, 30.190442510138908 ] } },
{ "type": "Feature", "properties": { "name": "宜昌市", "gb": "156420500" }, "geometry": { "type": "Point", "coordinates": [ 111.135333790635755, 30.747105951350818 ] } },
{ "type": "Feature", "properties": { "name": "怒江傈僳族自治州", "gb": "156533300" }, "geometry": { "type": "Point", "coordinates": [ 98.870007766683898, 26.959044970484076 ] } },
{ "type": "Feature", "properties": { "name": "柳州市", "gb": "156450200" }, "geometry": { "type": "Point", "coordinates": [ 109.372002368999219, 24.946168724440877 ] } },
{ "type": "Feature", "properties": { "name": "平凉市", "gb": "156620800" }, "geometry": { "type": "Point", "coordinates": [ 106.646735935013467, 35.30533592044489 ] } },
{ "type": "Feature", "properties": { "name": "眉山市", "gb": "156511400" }, "geometry": { "type": "Point", "coordinates": [ 103.757912989657399, 29.929790620742356 ] } },
{ "type": "Feature", "properties": { "name": "青岛市", "gb": "156370200" }, "geometry": { "type": "Point", "coordinates": [ 120.141988935180791, 36.452913587381595 ] } },
{ "type": "Feature", "properties": { "name": "新乡市", "gb": "156410700" }, "geometry": { "type": "Point", "coordinates": [ 114.087044932432121, 35.262403863914685 ] } },
{ "type": "Feature", "properties": { "name": "乌海市", "gb": "156150300" }, "geometry": { "type": "Point", "coordinates": [ 106.868970260891118, 39.426955449542241 ] } },
{ "type": "Feature", "properties": { "name": "黔西南布依族苗族自治州", "gb": "156522300" }, "geometry": { "type": "Point", "coordinates": [ 105.464199114936648, 25.266526770361384 ] } },
{ "type": "Feature", "properties": { "name": "晋城市", "gb": "156140500" }, "geometry": { "type": "Point", "coordinates": [ 112.706044537565901, 35.610210101544254 ] } },
{ "type": "Feature", "properties": { "name": "广州市", "gb": "156440100" }, "geometry": { "type": "Point", "coordinates": [ 113.536839254743029, 23.343006141745491 ] } },
{ "type": "Feature", "properties": { "name": "吉林市", "gb": "156220200" }, "geometry": { "type": "Point", "coordinates": [ 126.842640186980006, 43.578980650417805 ] } },
{ "type": "Feature", "properties": { "name": "九江市", "gb": "156360400" }, "geometry": { "type": "Point", "coordinates": [ 115.451584417192592, 29.322474952991382 ] } },
{ "type": "Feature", "properties": { "name": "漳州市", "gb": "156350600" }, "geometry": { "type": "Point", "coordinates": [ 117.443111010140356, 24.365952768597673 ] } },
{ "type": "Feature", "properties": { "name": "来宾市", "gb": "156451300" }, "geometry": { "type": "Point", "coordinates": [ 109.412696619420601, 23.854015934089485 ] } },
{ "type": "Feature", "properties": { "name": "张家口市", "gb": "156130700" }, "geometry": { "type": "Point", "coordinates": [ 115.031225689485709, 40.865080359894101 ] } },
{ "type": "Feature", "properties": { "name": "德州市", "gb": "156371400" }, "geometry": { "type": "Point", "coordinates": [ 116.647755011707233, 37.246038975748853 ] } },
{ "type": "Feature", "properties": { "name": "胡杨河市", "gb": "156659010" }, "geometry": { "type": "Point", "coordinates": [ 84.79782669101364, 44.805090975444948 ] } },
{ "type": "Feature", "properties": { "name": "固原市", "gb": "156640400" }, "geometry": { "type": "Point", "coordinates": [ 106.182183689020576, 35.913317124271934 ] } },
{ "type": "Feature", "properties": { "name": "抚顺市", "gb": "156210400" }, "geometry": { "type": "Point", "coordinates": [ 124.654953991107277, 41.833366201432931 ] } },
{ "type": "Feature", "properties": { "name": "安庆市", "gb": "156340800" }, "geometry": { "type": "Point", "coordinates": [ 116.486396195073553, 30.576055810596344 ] } },
{ "type": "Feature", "properties": { "name": "白杨市", "gb": "156659012" }, "geometry": { "type": "Point", "coordinates": [ 82.870570084890161, 46.747505095222763 ] } },
{ "type": "Feature", "properties": { "name": "新星市", "gb": "156659011" }, "geometry": { "type": "Point", "coordinates": [ 94.500691277633607, 42.633886382124871 ] } },
{ "type": "Feature", "properties": { "name": "克拉玛依市", "gb": "156650200" }, "geometry": { "type": "Point", "coordinates": [ 85.191871107702326, 45.478037915058302 ] } },
{ "type": "Feature", "properties": { "name": "湘潭市", "gb": "156430300" }, "geometry": { "type": "Point", "coordinates": [ 112.60287109904273, 27.731307619539518 ] } },
{ "type": "Feature", "properties": { "name": "昆玉市", "gb": "156659009" }, "geometry": { "type": "Point", "coordinates": [ 78.935741869118544, 37.504508264998137 ] } },
{ "type": "Feature", "properties": { "name": "惠州市", "gb": "156441300" }, "geometry": { "type": "Point", "coordinates": [ 114.497605227719617, 23.244709533763416 ] } },
{ "type": "Feature", "properties": { "name": "可克达拉市", "gb": "156659008" }, "geometry": { "type": "Point", "coordinates": [ 80.683489298567451, 43.924748496719239 ] } },
{ "type": "Feature", "properties": { "name": "襄阳市", "gb": "156420600" }, "geometry": { "type": "Point", "coordinates": [ 111.936870366122193, 31.931435133068426 ] } },
{ "type": "Feature", "properties": { "name": "南宁市", "gb": "156450100" }, "geometry": { "type": "Point", "coordinates": [ 108.463478761377544, 23.056741628609171 ] } },
{ "type": "Feature", "properties": { "name": "南充市", "gb": "156511300" }, "geometry": { "type": "Point", "coordinates": [ 106.203803121406338, 31.195732807201129 ] } },
{ "type": "Feature", "properties": { "name": "酒泉市", "gb": "156620900" }, "geometry": { "type": "Point", "coordinates": [ 96.055793838968469, 40.259825212490753 ] } },
{ "type": "Feature", "properties": { "name": "淄博市", "gb": "156370300" }, "geometry": { "type": "Point", "coordinates": [ 118.05326603265361, 36.607375393089292 ] } },
{ "type": "Feature", "properties": { "name": "图木舒克市", "gb": "156659003" }, "geometry": { "type": "Point", "coordinates": [ 79.039924746343303, 39.846767696393762 ] } },
{ "type": "Feature", "properties": { "name": "阿拉尔市", "gb": "156659002" }, "geometry": { "type": "Point", "coordinates": [ 81.310277800755543, 40.598221933636431 ] } },
{ "type": "Feature", "properties": { "name": "焦作市", "gb": "156410800" }, "geometry": { "type": "Point", "coordinates": [ 113.129362200813915, 35.116595719167471 ] } },
{ "type": "Feature", "properties": { "name": "石河子市", "gb": "156659001" }, "geometry": { "type": "Point", "coordinates": [ 86.035132749236283, 44.305300891780945 ] } },
{ "type": "Feature", "properties": { "name": "赤峰市", "gb": "156150400" }, "geometry": { "type": "Point", "coordinates": [ 118.871414038586522, 43.220732764676342 ] } },
{ "type": "Feature", "properties": { "name": "双河市", "gb": "156659007" }, "geometry": { "type": "Point", "coordinates": [ 82.346801949881097, 44.852356343565987 ] } },
{ "type": "Feature", "properties": { "name": "铁门关市", "gb": "156659006" }, "geometry": { "type": "Point", "coordinates": [ 86.689509741697336, 40.554991734484368 ] } },
{ "type": "Feature", "properties": { "name": "北屯市", "gb": "156659005" }, "geometry": { "type": "Point", "coordinates": [ 87.954191705743838, 47.242172099816855 ] } },
{ "type": "Feature", "properties": { "name": "五家渠市", "gb": "156659004" }, "geometry": { "type": "Point", "coordinates": [ 87.55467802159221, 44.361355819229416 ] } },
{ "type": "Feature", "properties": { "name": "韶关市", "gb": "156440200" }, "geometry": { "type": "Point", "coordinates": [ 113.773748436355902, 24.81851345694589 ] } },
{ "type": "Feature", "properties": { "name": "朔州市", "gb": "156140600" }, "geometry": { "type": "Point", "coordinates": [ 112.639429996613742, 39.618801606615989 ] } },
{ "type": "Feature", "properties": { "name": "四平市", "gb": "156220300" }, "geometry": { "type": "Point", "coordinates": [ 124.383230682105676, 43.483001865688962 ] } },
{ "type": "Feature", "properties": { "name": "新余市", "gb": "156360500" }, "geometry": { "type": "Point", "coordinates": [ 114.852538357619835, 27.845186363570857 ] } },
{ "type": "Feature", "properties": { "name": "南平市", "gb": "156350700" }, "geometry": { "type": "Point", "coordinates": [ 118.142285323326902, 27.340369351686228 ] } },
{ "type": "Feature", "properties": { "name": "哈尔滨市", "gb": "156230100" }, "geometry": { "type": "Point", "coordinates": [ 127.955493806812271, 45.636535371501509 ] } },
{ "type": "Feature", "properties": { "name": "成都市", "gb": "156510100" }, "geometry": { "type": "Point", "coordinates": [ 103.930046939448687, 30.653514351121689 ] } },
{ "type": "Feature", "properties": { "name": "河池市", "gb": "156451200" }, "geometry": { "type": "Point", "coordinates": [ 107.840790277940002, 24.643202632249462 ] } },
{ "type": "Feature", "properties": { "name": "中卫市", "gb": "156640500" }, "geometry": { "type": "Point", "coordinates": [ 105.502215471431697, 37.018603062347118 ] } },
{ "type": "Feature", "properties": { "name": "本溪市", "gb": "156210500" }, "geometry": { "type": "Point", "coordinates": [ 124.567445678095467, 41.228373770543321 ] } },
{ "type": "Feature", "properties": { "name": "承德市", "gb": "156130800" }, "geometry": { "type": "Point", "coordinates": [ 117.546528411377807, 41.346801742185143 ] } },
{ "type": "Feature", "properties": { "name": "聊城市", "gb": "156371500" }, "geometry": { "type": "Point", "coordinates": [ 115.880836090827316, 36.458654410037269 ] } },
{ "type": "Feature", "properties": { "name": "衡阳市", "gb": "156430400" }, "geometry": { "type": "Point", "coordinates": [ 112.57431513499472, 26.794186071540341 ] } },
{ "type": "Feature", "properties": { "name": "湘西土家族苗族自治州", "gb": "156433100" }, "geometry": { "type": "Point", "coordinates": [ 109.726645300024188, 28.694307789375681 ] } },
{ "type": "Feature", "properties": { "name": "杭州市", "gb": "156330100" }, "geometry": { "type": "Point", "coordinates": [ 119.470123557540546, 29.900620209218776 ] } },
{ "type": "Feature", "properties": { "name": "玉树藏族自治州", "gb": "156632700" }, "geometry": { "type": "Point", "coordinates": [ 94.320970056912856, 34.211365737215075 ] } },
{ "type": "Feature", "properties": { "name": "武威市", "gb": "156620600" }, "geometry": { "type": "Point", "coordinates": [ 103.059585583277553, 38.176497275017951 ] } },
{ "type": "Feature", "properties": { "name": "临夏回族自治州", "gb": "156622900" }, "geometry": { "type": "Point", "coordinates": [ 103.277929445614873, 35.671376002091968 ] } },
{ "type": "Feature", "properties": { "name": "黄山市", "gb": "156341000" }, "geometry": { "type": "Point", "coordinates": [ 118.070932190745609, 29.90646746016429 ] } },
{ "type": "Feature", "properties": { "name": "徐州市", "gb": "156320300" }, "geometry": { "type": "Point", "coordinates": [ 117.514198332706812, 34.359153134780527 ] } },
{ "type": "Feature", "properties": { "name": "济宁市", "gb": "156370800" }, "geometry": { "type": "Point", "coordinates": [ 116.731350402165887, 35.375329253883429 ] } },
{ "type": "Feature", "properties": { "name": "揭阳市", "gb": "156445200" }, "geometry": { "type": "Point", "coordinates": [ 116.117270375893426, 23.338195018767557 ] } },
{ "type": "Feature", "properties": { "name": "那曲市", "gb": "156540600" }, "geometry": { "type": "Point", "coordinates": [ 89.257027603601827, 32.736234529814723 ] } },
{ "type": "Feature", "properties": { "name": "郑州市", "gb": "156410100" }, "geometry": { "type": "Point", "coordinates": [ 113.467632108131994, 34.627172453706365 ] } },
{ "type": "Feature", "properties": { "name": "通辽市", "gb": "156150500" }, "geometry": { "type": "Point", "coordinates": [ 121.570158954625384, 43.816353603889901 ] } },
{ "type": "Feature", "properties": { "name": "贵港市", "gb": "156450800" }, "geometry": { "type": "Point", "coordinates": [ 109.998652370461031, 23.308245019761614 ] } },
{ "type": "Feature", "properties": { "name": "安康市", "gb": "156610900" }, "geometry": { "type": "Point", "coordinates": [ 108.926179754035871, 32.759474449413965 ] } },
{ "type": "Feature", "properties": { "name": "昌吉回族自治州", "gb": "156652300" }, "geometry": { "type": "Point", "coordinates": [ 88.631872751420872, 44.345817388847948 ] } },
{ "type": "Feature", "properties": { "name": "晋中市", "gb": "156140700" }, "geometry": { "type": "Point", "coordinates": [ 112.96214842630593, 37.326281047804898 ] } },
{ "type": "Feature", "properties": { "name": "大庆市", "gb": "156230600" }, "geometry": { "type": "Point", "coordinates": [ 124.699381309758238, 46.346022079010908 ] } },
{ "type": "Feature", "properties": { "name": "普洱市", "gb": "156530800" }, "geometry": { "type": "Point", "coordinates": [ 100.720447683339387, 23.186452019382418 ] } },
{ "type": "Feature", "properties": { "name": "白城市", "gb": "156220800" }, "geometry": { "type": "Point", "coordinates": [ 123.010231426376137, 45.344388602085779 ] } },
{ "type": "Feature", "properties": { "name": "香港特别行政区", "gb": "156810000" }, "geometry": { "type": "Point", "coordinates": [ 114.132759229830711, 22.386716268669293 ] } },
{ "type": "Feature", "properties": { "name": "石嘴山市", "gb": "156640200" }, "geometry": { "type": "Point", "coordinates": [ 106.513358292488562, 39.0068515303129 ] } },
{ "type": "Feature", "properties": { "name": "荆州市", "gb": "156421000" }, "geometry": { "type": "Point", "coordinates": [ 112.571310341337039, 29.995110834000378 ] } },
{ "type": "Feature", "properties": { "name": "沧州市", "gb": "156130900" }, "geometry": { "type": "Point", "coordinates": [ 116.754400886239694, 38.26564359061355 ] } },
{ "type": "Feature", "properties": { "name": "三门峡市", "gb": "156411200" }, "geometry": { "type": "Point", "coordinates": [ 111.106208941191852, 34.361758939363725 ] } },
{ "type": "Feature", "properties": { "name": "海西蒙古族藏族自治州", "gb": "156632800" }, "geometry": { "type": "Point", "coordinates": [ 94.528685340058189, 36.712483549270956 ] } },
{ "type": "Feature", "properties": { "name": "云浮市", "gb": "156445300" }, "geometry": { "type": "Point", "coordinates": [ 111.79416177911412, 22.815617113232211 ] } },
{ "type": "Feature", "properties": { "name": "张掖市", "gb": "156620700" }, "geometry": { "type": "Point", "coordinates": [ 99.752142598412448, 38.999300025452676 ] } },
{ "type": "Feature", "properties": { "name": "滁州市", "gb": "156341100" }, "geometry": { "type": "Point", "coordinates": [ 118.101567196331288, 32.544429246253152 ] } },
{ "type": "Feature", "properties": { "name": "泰安市", "gb": "156370900" }, "geometry": { "type": "Point", "coordinates": [ 117.025679385787271, 36.001055106207112 ] } },
{ "type": "Feature", "properties": { "name": "无锡市", "gb": "156320200" }, "geometry": { "type": "Point", "coordinates": [ 120.078783533829778, 31.528934858158824 ] } },
{ "type": "Feature", "properties": { "name": "大兴安岭地区", "gb": "156232700" }, "geometry": { "type": "Point", "coordinates": [ 124.199787255369287, 52.326427054064801 ] } },
{ "type": "Feature", "properties": { "name": "鄂尔多斯市", "gb": "156150600" }, "geometry": { "type": "Point", "coordinates": [ 108.629515582588397, 39.412200101139241 ] } },
{ "type": "Feature", "properties": { "name": "阿拉善盟", "gb": "156152900" }, "geometry": { "type": "Point", "coordinates": [ 102.447642090453144, 40.497352309876263 ] } },
{ "type": "Feature", "properties": { "name": "山南市", "gb": "156540500" }, "geometry": { "type": "Point", "coordinates": [ 92.268553910646318, 28.300636870064022 ] } },
{ "type": "Feature", "properties": { "name": "开封市", "gb": "156410200" }, "geometry": { "type": "Point", "coordinates": [ 114.534598272521293, 34.60380309717182 ] } },
{ "type": "Feature", "properties": { "name": "重庆市", "gb": "156500000" }, "geometry": { "type": "Point", "coordinates": [ 107.875182343606156, 30.059129249723348 ] } },
{ "type": "Feature", "properties": { "name": "钦州市", "gb": "156450700" }, "geometry": { "type": "Point", "coordinates": [ 109.024360567113618, 22.182806496218525 ] } },
{ "type": "Feature", "properties": { "name": "榆林市", "gb": "156610800" }, "geometry": { "type": "Point", "coordinates": [ 109.567650017805818, 38.037914519233269 ] } },
{ "type": "Feature", "properties": { "name": "伊春市", "gb": "156230700" }, "geometry": { "type": "Point", "coordinates": [ 129.212869402052121, 47.813094083280419 ] } },
{ "type": "Feature", "properties": { "name": "运城市", "gb": "156140800" }, "geometry": { "type": "Point", "coordinates": [ 111.065586075189387, 35.186784140537696 ] } },
{ "type": "Feature", "properties": { "name": "丽江市", "gb": "156530700" }, "geometry": { "type": "Point", "coordinates": [ 100.524691381519375, 26.94104051765293 ] } },
{ "type": "Feature", "properties": { "name": "黄冈市", "gb": "156421100" }, "geometry": { "type": "Point", "coordinates": [ 115.338805917422789, 30.716678331703616 ] } },
{ "type": "Feature", "properties": { "name": "吴忠市", "gb": "156640300" }, "geometry": { "type": "Point", "coordinates": [ 106.529658852438942, 37.461417482099662 ] } },
{ "type": "Feature", "properties": { "name": "南阳市", "gb": "156411300" }, "geometry": { "type": "Point", "coordinates": [ 112.284201003676884, 33.043233496806565 ] } },
{ "type": "Feature", "properties": { "name": "乌鲁木齐市", "gb": "156650100" }, "geometry": { "type": "Point", "coordinates": [ 87.786375640285627, 43.753789561405753 ] } },
{ "type": "Feature", "properties": { "name": "和田地区", "gb": "156653200" }, "geometry": { "type": "Point", "coordinates": [ 80.921196525453638, 37.071678711937409 ] } },
{ "type": "Feature", "properties": { "name": "海南藏族自治州", "gb": "156632500" }, "geometry": { "type": "Point", "coordinates": [ 100.256193250221031, 35.900346931640023 ] } },
{ "type": "Feature", "properties": { "name": "海东市", "gb": "156630200" }, "geometry": { "type": "Point", "coordinates": [ 102.342957993142534, 36.332077142778182 ] } },
{ "type": "Feature", "properties": { "name": "武汉市", "gb": "156420100" }, "geometry": { "type": "Point", "coordinates": [ 114.342792409312352, 30.623623980513909 ] } },
{ "type": "Feature", "properties": { "name": "儋州市", "gb": "156460400" }, "geometry": { "type": "Point", "coordinates": [ 109.400873937134833, 19.569741717480149 ] } },
{ "type": "Feature", "properties": { "name": "甘孜藏族自治州", "gb": "156513300" }, "geometry": { "type": "Point", "coordinates": [ 99.997121067689903, 30.949444677525555 ] } },
{ "type": "Feature", "properties": { "name": "内江市", "gb": "156511000" }, "geometry": { "type": "Point", "coordinates": [ 104.910325097906949, 29.641624693986909 ] } },
{ "type": "Feature", "properties": { "name": "烟台市", "gb": "156370600" }, "geometry": { "type": "Point", "coordinates": [ 120.799877358040774, 37.23907499148163 ] } },
{ "type": "Feature", "properties": { "name": "南京市", "gb": "156320100" }, "geometry": { "type": "Point", "coordinates": [ 118.8421240547585, 31.9299356466618 ] } },
{ "type": "Feature", "properties": { "name": "白银市", "gb": "156620400" }, "geometry": { "type": "Point", "coordinates": [ 104.62074999623762, 36.613345964874149 ] } },
{ "type": "Feature", "properties": { "name": "郴州市", "gb": "156431000" }, "geometry": { "type": "Point", "coordinates": [ 113.136123271888408, 25.812171795218774 ] } },
{ "type": "Feature", "properties": { "name": "呼伦贝尔市", "gb": "156150700" }, "geometry": { "type": "Point", "coordinates": [ 121.195958196682312, 49.660879007446901 ] } },
{ "type": "Feature", "properties": { "name": "防城港市", "gb": "156450600" }, "geometry": { "type": "Point", "coordinates": [ 107.998063368795741, 21.882122166802606 ] } },
{ "type": "Feature", "properties": { "name": "北京市", "gb": "156110000" }, "geometry": { "type": "Point", "coordinates": [ 116.410473411103538, 40.185069567970459 ] } },
{ "type": "Feature", "properties": { "name": "洛阳市", "gb": "156410300" }, "geometry": { "type": "Point", "coordinates": [ 112.031084977913451, 34.290698950620943 ] } },
{ "type": "Feature", "properties": { "name": "澳门特别行政区", "gb": "156820000" }, "geometry": { "type": "Point", "coordinates": [ 113.558912751877344, 22.159445031684001 ] } },
{ "type": "Feature", "properties": { "name": "汉中市", "gb": "156610700" }, "geometry": { "type": "Point", "coordinates": [ 107.102543939832856, 33.088992833202482 ] } },
{ "type": "Feature", "properties": { "name": "吉安市", "gb": "156360800" }, "geometry": { "type": "Point", "coordinates": [ 114.824506437759297, 26.973060931576001 ] } },
{ "type": "Feature", "properties": { "name": "丽水市", "gb": "156331100" }, "geometry": { "type": "Point", "coordinates": [ 119.512283740476576, 28.200142945925744 ] } },
{ "type": "Feature", "properties": { "name": "忻州市", "gb": "156140900" }, "geometry": { "type": "Point", "coordinates": [ 112.40858106993727, 38.881892898466404 ] } },
{ "type": "Feature", "properties": { "name": "中山市", "gb": "156442000" }, "geometry": { "type": "Point", "coordinates": [ 113.385902289363941, 22.521042684544216 ] } },
{ "type": "Feature", "properties": { "name": "鹤岗市", "gb": "156230400" }, "geometry": { "type": "Point", "coordinates": [ 130.800711135907932, 47.639755956214266 ] } },
{ "type": "Feature", "properties": { "name": "白山市", "gb": "156220600" }, "geometry": { "type": "Point", "coordinates": [ 127.283058152242361, 42.068900104154118 ] } },
{ "type": "Feature", "properties": { "name": "咸宁市", "gb": "156421200" }, "geometry": { "type": "Point", "coordinates": [ 114.174275694830044, 29.624859878868431 ] } },
{ "type": "Feature", "properties": { "name": "宿迁市", "gb": "156321300" }, "geometry": { "type": "Point", "coordinates": [ 118.51982981587814, 33.783946287770469 ] } },
{ "type": "Feature", "properties": { "name": "济源市", "gb": "156419001" }, "geometry": { "type": "Point", "coordinates": [ 112.392380005995321, 35.099599282939749 ] } },
{ "type": "Feature", "properties": { "name": "营口市", "gb": "156210800" }, "geometry": { "type": "Point", "coordinates": [ 122.463360818773239, 40.39152947259899 ] } },
{ "type": "Feature", "properties": { "name": "商丘市", "gb": "156411400" }, "geometry": { "type": "Point", "coordinates": [ 115.697893955912932, 34.289562265131664 ] } },
{ "type": "Feature", "properties": { "name": "果洛藏族自治州", "gb": "156632600" }, "geometry": { "type": "Point", "coordinates": [ 99.420668228223334, 34.115491609851141 ] } },
{ "type": "Feature", "properties": { "name": "三沙市", "gb": "156460300" }, "geometry": { "type": "Point", "coordinates": [ 113.544985282843271, 9.601215463409275 ] } },
{ "type": "Feature", "properties": { "name": "黄石市", "gb": "156420200" }, "geometry": { "type": "Point", "coordinates": [ 115.024527715628707, 29.927536761669145 ] } },
{ "type": "Feature", "properties": { "name": "阿坝藏族羌族自治州", "gb": "156513200" }, "geometry": { "type": "Point", "coordinates": [ 102.609085352485835, 32.400120339730471 ] } },
{ "type": "Feature", "properties": { "name": "潍坊市", "gb": "156370700" }, "geometry": { "type": "Point", "coordinates": [ 119.071215620875151, 36.546360464137642 ] } },
{ "type": "Feature", "properties": { "name": "天水市", "gb": "156620500" }, "geometry": { "type": "Point", "coordinates": [ 105.73833703890574, 34.647524975138211 ] } },
{ "type": "Feature", "properties": { "name": "永州市", "gb": "156431100" }, "geometry": { "type": "Point", "coordinates": [ 111.728197729649665, 25.771575441153566 ] } },
{ "type": "Feature", "properties": { "name": "巴彦淖尔市", "gb": "156150800" }, "geometry": { "type": "Point", "coordinates": [ 107.569336037962501, 41.445756233010599 ] } },
{ "type": "Feature", "properties": { "name": "北海市", "gb": "156450500" }, "geometry": { "type": "Point", "coordinates": [ 109.33184881763421, 21.678212261256231 ] } },
{ "type": "Feature", "properties": { "name": "平顶山市", "gb": "156410400" }, "geometry": { "type": "Point", "coordinates": [ 113.011670399330427, 33.795694551611753 ] } },
{ "type": "Feature", "properties": { "name": "宜春市", "gb": "156360900" }, "geometry": { "type": "Point", "coordinates": [ 114.971344266381934, 28.306146977286403 ] } },
{ "type": "Feature", "properties": { "name": "台州市", "gb": "156331000" }, "geometry": { "type": "Point", "coordinates": [ 121.11151684306985, 28.772863678402352 ] } },
{ "type": "Feature", "properties": { "name": "东方市", "gb": "156469007" }, "geometry": { "type": "Point", "coordinates": [ 108.839383022063032, 18.994664902411944 ] } },
{ "type": "Feature", "properties": { "name": "延安市", "gb": "156610600" }, "geometry": { "type": "Point", "coordinates": [ 109.315783954438203, 36.437245423107527 ] } },
{ "type": "Feature", "properties": { "name": "万宁市", "gb": "156469006" }, "geometry": { "type": "Point", "coordinates": [ 110.280656005090137, 18.836292647847866 ] } },
{ "type": "Feature", "properties": { "name": "文昌市", "gb": "156469005" }, "geometry": { "type": "Point", "coordinates": [ 110.769855752666615, 19.74509158060318 ] } },
{ "type": "Feature", "properties": { "name": "双鸭山市", "gb": "156230500" }, "geometry": { "type": "Point", "coordinates": [ 132.543434371746599, 46.680029801774957 ] } },
{ "type": "Feature", "properties": { "name": "临沧市", "gb": "156530900" }, "geometry": { "type": "Point", "coordinates": [ 99.672232741991337, 23.938789318764297 ] } },
{ "type": "Feature", "properties": { "name": "松原市", "gb": "156220700" }, "geometry": { "type": "Point", "coordinates": [ 124.473423611267592, 44.799944339556916 ] } },
{ "type": "Feature", "properties": { "name": "随州市", "gb": "156421300" }, "geometry": { "type": "Point", "coordinates": [ 113.423647619281482, 31.82807885437818 ] } },
{ "type": "Feature", "properties": { "name": "资阳市", "gb": "156512000" }, "geometry": { "type": "Point", "coordinates": [ 105.114832257659018, 30.100620096097732 ] } },
{ "type": "Feature", "properties": { "name": "银川市", "gb": "156640100" }, "geometry": { "type": "Point", "coordinates": [ 106.344758225065149, 38.280676880013587 ] } },
{ "type": "Feature", "properties": { "name": "泰州市", "gb": "156321200" }, "geometry": { "type": "Point", "coordinates": [ 120.057033808615245, 32.571721715176061 ] } },
{ "type": "Feature", "properties": { "name": "神农架林区", "gb": "156429021" }, "geometry": { "type": "Point", "coordinates": [ 110.476995386581478, 31.591257096300762 ] } },
{ "type": "Feature", "properties": { "name": "阜新市", "gb": "156210900" }, "geometry": { "type": "Point", "coordinates": [ 121.954208937018635, 42.279364799378257 ] } },
{ "type": "Feature", "properties": { "name": "琼海市", "gb": "156469002" }, "geometry": { "type": "Point", "coordinates": [ 110.402750624627885, 19.210853241944015 ] } },
{ "type": "Feature", "properties": { "name": "五指山市", "gb": "156469001" }, "geometry": { "type": "Point", "coordinates": [ 109.507119483513407, 18.825830906608154 ] } },
{ "type": "Feature", "properties": { "name": "信阳市", "gb": "156411500" }, "geometry": { "type": "Point", "coordinates": [ 114.881665268419624, 32.080679284504676 ] } },
{ "type": "Feature", "properties": { "name": "湖州市", "gb": "156330500" }, "geometry": { "type": "Point", "coordinates": [ 119.870797784186891, 30.745342438707038 ] } },
{ "type": "Feature", "properties": { "name": "黄南藏族自治州", "gb": "156632300" }, "geometry": { "type": "Point", "coordinates": [ 101.626890154320705, 35.021257168910509 ] } },
{ "type": "Feature", "properties": { "name": "抚州市", "gb": "156361000" }, "geometry": { "type": "Point", "coordinates": [ 116.433868936363581, 27.510255074121432 ] } },
{ "type": "Feature", "properties": { "name": "清远市", "gb": "156441800" }, "geometry": { "type": "Point", "coordinates": [ 112.874872688941579, 24.312870017861098 ] } },
{ "type": "Feature", "properties": { "name": "天津市", "gb": "156120000" }, "geometry": { "type": "Point", "coordinates": [ 117.332802526125533, 39.294539496706633 ] } },
{ "type": "Feature", "properties": { "name": "嘉峪关市", "gb": "156620200" }, "geometry": { "type": "Point", "coordinates": [ 98.210842062089128, 39.828652409787921 ] } },
{ "type": "Feature", "properties": { "name": "乌兰察布市", "gb": "156150900" }, "geometry": { "type": "Point", "coordinates": [ 112.442978149226093, 41.682915245325098 ] } },
{ "type": "Feature", "properties": { "name": "阿里地区", "gb": "156542500" }, "geometry": { "type": "Point", "coordinates": [ 82.557766334634621, 33.029842521880731 ] } },
{ "type": "Feature", "properties": { "name": "连云港市", "gb": "156320700" }, "geometry": { "type": "Point", "coordinates": [ 119.131789206939942, 34.534879574539218 ] } },
{ "type": "Feature", "properties": { "name": "克孜勒苏柯尔克孜自治州", "gb": "156653000" }, "geometry": { "type": "Point", "coordinates": [ 75.944539269190898, 39.655734761772663 ] } },
{ "type": "Feature", "properties": { "name": "日喀则市", "gb": "156540200" }, "geometry": { "type": "Point", "coordinates": [ 86.485030939696102, 29.490765985985604 ] } },
{ "type": "Feature", "properties": { "name": "渭南市", "gb": "156610500" }, "geometry": { "type": "Point", "coordinates": [ 109.852728926272306, 34.951141807534128 ] } },
{ "type": "Feature", "properties": { "name": "铜仁市", "gb": "156520600" }, "geometry": { "type": "Point", "coordinates": [ 108.540886086726232, 27.971562593653811 ] } },
{ "type": "Feature", "properties": { "name": "玉溪市", "gb": "156530400" }, "geometry": { "type": "Point", "coordinates": [ 102.201920783387635, 24.139653314694204 ] } },
{ "type": "Feature", "properties": { "name": "江门市", "gb": "156440700" }, "geometry": { "type": "Point", "coordinates": [ 112.668544729306632, 22.281804075297501 ] } },
{ "type": "Feature", "properties": { "name": "益阳市", "gb": "156430900" }, "geometry": { "type": "Point", "coordinates": [ 111.950813153957725, 28.574784989269304 ] } },
{ "type": "Feature", "properties": { "name": "广元市", "gb": "156510800" }, "geometry": { "type": "Point", "coordinates": [ 105.783227461846593, 32.260661164133907 ] } },
{ "type": "Feature", "properties": { "name": "芜湖市", "gb": "156340200" }, "geometry": { "type": "Point", "coordinates": [ 118.134369565047962, 31.162766844524153 ] } },
{ "type": "Feature", "properties": { "name": "塔城地区", "gb": "156654200" }, "geometry": { "type": "Point", "coordinates": [ 84.791442543652821, 45.639584756086151 ] } },
{ "type": "Feature", "properties": { "name": "嘉兴市", "gb": "156330400" }, "geometry": { "type": "Point", "coordinates": [ 120.759177193202106, 30.633975435944397 ] } },
{ "type": "Feature", "properties": { "name": "西宁市", "gb": "156630100" }, "geometry": { "type": "Point", "coordinates": [ 101.436785338551161, 36.825344748650771 ] } },
{ "type": "Feature", "properties": { "name": "上饶市", "gb": "156361100" }, "geometry": { "type": "Point", "coordinates": [ 117.471888707404858, 28.773915059053117 ] } },
{ "type": "Feature", "properties": { "name": "东莞市", "gb": "156441900" }, "geometry": { "type": "Point", "coordinates": [ 113.875181070273413, 22.935258879439143 ] } },
{ "type": "Feature", "properties": { "name": "南通市", "gb": "156320600" }, "geometry": { "type": "Point", "coordinates": [ 121.023298822807476, 32.184175857376076 ] } },
{ "type": "Feature", "properties": { "name": "辽阳市", "gb": "156211000" }, "geometry": { "type": "Point", "coordinates": [ 123.246151854558974, 41.18068095648001 ] } },
{ "type": "Feature", "properties": { "name": "巴中市", "gb": "156511900" }, "geometry": { "type": "Point", "coordinates": [ 107.037655633723134, 32.015544627231968 ] } },
{ "type": "Feature", "properties": { "name": "六安市", "gb": "156341500" }, "geometry": { "type": "Point", "coordinates": [ 116.228890404659239, 31.661119245068246 ] } },
{ "type": "Feature", "properties": { "name": "金昌市", "gb": "156620300" }, "geometry": { "type": "Point", "coordinates": [ 102.047142404597906, 38.432604047761942 ] } },
{ "type": "Feature", "properties": { "name": "廊坊市", "gb": "156131000" }, "geometry": { "type": "Point", "coordinates": [ 116.626981686007909, 39.258032438514931 ] } },
{ "type": "Feature", "properties": { "name": "拉萨市", "gb": "156540100" }, "geometry": { "type": "Point", "coordinates": [ 91.0898391549037, 30.037025106995493 ] } },
{ "type": "Feature", "properties": { "name": "喀什地区", "gb": "156653100" }, "geometry": { "type": "Point", "coordinates": [ 77.186130998264503, 38.126883866833275 ] } },
{ "type": "Feature", "properties": { "name": "阿勒泰地区", "gb": "156654300" }, "geometry": { "type": "Point", "coordinates": [ 88.405436504369177, 46.906045693591615 ] } },
{ "type": "Feature", "properties": { "name": "毕节市", "gb": "156520500" }, "geometry": { "type": "Point", "coordinates": [ 105.213786492593897, 27.067137613058225 ] } },
{ "type": "Feature", "properties": { "name": "福州市", "gb": "156350100" }, "geometry": { "type": "Point", "coordinates": [ 119.179252035211604, 26.050174090324397 ] } },
{ "type": "Feature", "properties": { "name": "咸阳市", "gb": "156610400" }, "geometry": { "type": "Point", "coordinates": [ 108.390369073348779, 34.787228829771109 ] } },
{ "type": "Feature", "properties": { "name": "文山壮族苗族自治州", "gb": "156532600" }, "geometry": { "type": "Point", "coordinates": [ 104.715483248840542, 23.690163333689927 ] } },
{ "type": "Feature", "properties": { "name": "湛江市", "gb": "156440800" }, "geometry": { "type": "Point", "coordinates": [ 110.16389577915831, 21.088591483274154 ] } },
{ "type": "Feature", "properties": { "name": "曲靖市", "gb": "156530300" }, "geometry": { "type": "Point", "coordinates": [ 103.937651658104684, 25.70196217573822 ] } },
{ "type": "Feature", "properties": { "name": "蚌埠市", "gb": "156340300" }, "geometry": { "type": "Point", "coordinates": [ 117.32511884339543, 33.108488817754953 ] } },
{ "type": "Feature", "properties": { "name": "绵阳市", "gb": "156510700" }, "geometry": { "type": "Point", "coordinates": [ 104.70340960527912, 31.848539116516232 ] } },
{ "type": "Feature", "properties": { "name": "温州市", "gb": "156330300" }, "geometry": { "type": "Point", "coordinates": [ 120.441911675271797, 27.904489303752321 ] } },
{ "type": "Feature", "properties": { "name": "苏州市", "gb": "156320500" }, "geometry": { "type": "Point", "coordinates": [ 120.652436302308629, 31.382104791936278 ] } },
{ "type": "Feature", "properties": { "name": "阜阳市", "gb": "156341200" }, "geometry": { "type": "Point", "coordinates": [ 115.702055541625271, 32.917422519203527 ] } },
{ "type": "Feature", "properties": { "name": "林芝市", "gb": "156540400" }, "geometry": { "type": "Point", "coordinates": [ 95.241565692177815, 29.194877506751169 ] } },
{ "type": "Feature", "properties": { "name": "衡水市", "gb": "156131100" }, "geometry": { "type": "Point", "coordinates": [ 115.82426137830258, 37.761596499617447 ] } },
{ "type": "Feature", "properties": { "name": "许昌市", "gb": "156411000" }, "geometry": { "type": "Point", "coordinates": [ 113.709708199601081, 34.07279011082074 ] } },
{ "type": "Feature", "properties": { "name": "佳木斯市", "gb": "156230800" }, "geometry": { "type": "Point", "coordinates": [ 132.261004300320593, 47.267305881816917 ] } },
{ "type": "Feature", "properties": { "name": "宝鸡市", "gb": "156610300" }, "geometry": { "type": "Point", "coordinates": [ 107.200927801976121, 34.379158925814906 ] } },
{ "type": "Feature", "properties": { "name": "昭通市", "gb": "156530600" }, "geometry": { "type": "Point", "coordinates": [ 104.000527819027411, 27.65288013827951 ] } },
{ "type": "Feature", "properties": { "name": "大理白族自治州", "gb": "156532900" }, "geometry": { "type": "Point", "coordinates": [ 100.039018146866596, 25.728120136571114 ] } },
{ "type": "Feature", "properties": { "name": "定西市", "gb": "156621100" }, "geometry": { "type": "Point", "coordinates": [ 104.452733303893766, 35.119716520154356 ] } },
{ "type": "Feature", "properties": { "name": "茂名市", "gb": "156440900" }, "geometry": { "type": "Point", "coordinates": [ 110.95197366074305, 22.012724031935445 ] } },
{ "type": "Feature", "properties": { "name": "伊犁哈萨克自治州", "gb": "156654000" }, "geometry": { "type": "Point", "coordinates": [ 82.128946717660142, 43.449199306978663 ] } },
{ "type": "Feature", "properties": { "name": "宁波市", "gb": "156330200" }, "geometry": { "type": "Point", "coordinates": [ 121.468172990548183, 29.729141971447035 ] } },
{ "type": "Feature", "properties": { "name": "兰州市", "gb": "156620100" }, "geometry": { "type": "Point", "coordinates": [ 103.637490834434331, 36.355503497465655 ] } },
{ "type": "Feature", "properties": { "name": "临汾市", "gb": "156141000" }, "geometry": { "type": "Point", "coordinates": [ 111.377630483214986, 36.226687424080161 ] } },
{ "type": "Feature", "properties": { "name": "常州市", "gb": "156320400" }, "geometry": { "type": "Point", "coordinates": [ 119.637643071813642, 31.626256427035365 ] } },
{ "type": "Feature", "properties": { "name": "宿州市", "gb": "156341300" }, "geometry": { "type": "Point", "coordinates": [ 117.209423827304931, 33.860237631963358 ] } },
{ "type": "Feature", "properties": { "name": "潮州市", "gb": "156445100" }, "geometry": { "type": "Point", "coordinates": [ 116.771731403485333, 23.796812527847656 ] } },
{ "type": "Feature", "properties": { "name": "昌都市", "gb": "156540300" }, "geometry": { "type": "Point", "coordinates": [ 97.038514915604438, 30.774695484123985 ] } },
{ "type": "Feature", "properties": { "name": "玉林市", "gb": "156450900" }, "geometry": { "type": "Point", "coordinates": [ 110.181609246537519, 22.441116280441555 ] } },
{ "type": "Feature", "properties": { "name": "海北藏族自治州", "gb": "156632200" }, "geometry": { "type": "Point", "coordinates": [ 100.302589723299477, 37.758527443813868 ] } },
{ "type": "Feature", "properties": { "name": "漯河市", "gb": "156411100" }, "geometry": { "type": "Point", "coordinates": [ 113.899464402896584, 33.655708995114892 ] } },
{ "type": "Feature", "properties": { "name": "七台河市", "gb": "156230900" }, "geometry": { "type": "Point", "coordinates": [ 130.973450038922834, 45.911570254537487 ] } },
{ "type": "Feature", "properties": { "name": "西双版纳傣族自治州", "gb": "156532800" }, "geometry": { "type": "Point", "coordinates": [ 100.943604381856971, 21.931607870952678 ] } },
{ "type": "Feature", "properties": { "name": "陇南市", "gb": "156621200" }, "geometry": { "type": "Point", "coordinates": [ 105.222364095658591, 33.595668937000355 ] } },
{ "type": "Feature", "properties": { "name": "保山市", "gb": "156530500" }, "geometry": { "type": "Point", "coordinates": [ 98.971204325691588, 24.976526611806914 ] } },
{ "type": "Feature", "properties": { "name": "遂宁市", "gb": "156510900" }, "geometry": { "type": "Point", "coordinates": [ 105.472007421393343, 30.631721699144666 ] } },
{ "type": "Feature", "properties": { "name": "合肥市", "gb": "156340100" }, "geometry": { "type": "Point", "coordinates": [ 117.356515538566498, 31.763541103857435 ] } },
{ "type": "Feature", "properties": { "name": "铜川市", "gb": "156610200" }, "geometry": { "type": "Point", "coordinates": [ 109.032381777030849, 35.195724400998344 ] } }
]
}
